{"type": "FeatureCollection", "features": [ {"type": "Feature", "properties": {"norad_id": 38068, "name": "COSMOS 2251 DEB", "group": "cosmos-2251-debris", "lat": 64.59719053292271, "lon": 99.95235037631127, "alt_km": 757.2062248825423, "timestamp": "2025-12-07T22:37:43.480221+00:00", "meta": {"OBJECT_NAME": "COSMOS 2251 DEB", "OBJECT_ID": "1993-036BSA", "EPOCH": "2025-11-26T00:12:22.263264", "MEAN_MOTION": 14.35960004, "ECCENTRICITY": 0.00240903, "INCLINATION": 74.0219, "RA_OF_ASC_NODE": 338.9788, "ARG_OF_PERICENTER": 72.1007, "MEAN_ANOMALY": 288.2769, "EPHEMERIS_TYPE": 0, "CLASSIFICATION_TYPE": "U", "NORAD_CAT_ID": 38068, "ELEMENT_SET_NO": 999, "REV_AT_EPOCH": 66406, "BSTAR": 0.00028750999, "MEAN_MOTION_DOT": 8.11e-06, "MEAN_MOTION_DDOT": 0}, "tle": {"line1": "1 38068U 93036BSA 25330.00859101  .00000811  00000+0  28751-3 0  9998", "line2": "2 38068  74.0219 338.9788 0024090  72.1007 288.2769 14.35960004664064"}}, "geometry": {"type": "Point", "coordinates": [99.95235037631127, 64.59719053292271]}}, {"type": "Feature", "properties": {"norad_id": 38197, "name": "COSMOS 2251 DEB", "group": "cosmos-2251-debris", "lat": 14.451865223720988, "lon": -177.7922224218891, "alt_km": 633.9348720923554, "timestamp": "2025-12-07T22:37:43.480232+00:00", "meta": {"OBJECT_NAME": "COSMOS 2251 DEB", "OBJECT_ID": "1993-036BSM", "EPOCH": "2025-12-06T08:23:38.720544", "MEAN_MOTION": 14.73443974, "ECCENTRICITY": 0.01278233, "INCLINATION": 73.9374, "RA_OF_ASC_NODE": 9.5906, "ARG_OF_PERICENTER": 248.6573, "MEAN_ANOMALY": 110.0918, "EPHEMERIS_TYPE": 0, "CLASSIFICATION_TYPE": "U", "NORAD_CAT_ID": 38197, "ELEMENT_SET_NO": 999, "REV_AT_EPOCH": 85661, "BSTAR": 0.0077538955, "MEAN_MOTION_DOT": 0.00057752, "MEAN_MOTION_DDOT": 0}, "tle": {"line1": "1 38197U 93036BSM 25340.34975371  .00057752  00000+0  77539-2 0  9990", "line2": "2 38197  73.9374   9.5906 0127823 248.6573 110.0918 14.73443974856612"}}, "geometry": {"type": "Point", "coordinates": [-177.7922224218891, 14.451865223720988]}}, {"type": "Feature", "properties": {"norad_id": 38199, "name": "COSMOS 2251 DEB", "group": "cosmos-2251-debris", "lat": 37.68945101480933, "lon": 82.91540142529774, "alt_km": 807.9116762848425, "timestamp": "2025-12-07T22:37:43.480242+00:00", "meta": {"OBJECT_NAME": "COSMOS 2251 DEB", "OBJECT_ID": "1993-036BSP", "EPOCH": "2025-12-06T21:49:14.439360", "MEAN_MOTION": 13.64783604, "ECCENTRICITY": 0.03693827, "INCLINATION": 73.9557, "RA_OF_ASC_NODE": 71.7677, "ARG_OF_PERICENTER": 359.4298, "MEAN_ANOMALY": 0.6342, "EPHEMERIS_TYPE": 0, "CLASSIFICATION_TYPE": "U", "NORAD_CAT_ID": 38199, "ELEMENT_SET_NO": 999, "REV_AT_EPOCH": 60942, "BSTAR": 0.00070508204, "MEAN_MOTION_DOT": 8.82e-06, "MEAN_MOTION_DDOT": 0}, "tle": {"line1": "1 38199U 93036BSP 25340.90919490  .00000882  00000+0  70508-3 0  9996", "line2": "2 38199  73.9557  71.7677 0369382 359.4298   0.6342 13.64783604609422"}}, "geometry": {"type": "Point", "coordinates": [82.91540142529774, 37.68945101480933]}}, {"type": "Feature", "properties": {"norad_id": 38208, "name": "COSMOS 2251 DEB", "group": "cosmos-2251-debris", "lat": -52.553096507780644, "lon": 66.44286813976571, "alt_km": 626.1514578900233, "timestamp": "2025-12-07T22:37:43.480253+00:00", "meta": {"OBJECT_NAME": "COSMOS 2251 DEB", "OBJECT_ID": "1993-036BSY", "EPOCH": "2025-12-05T14:19:12.971424", "MEAN_MOTION": 14.83431595, "ECCENTRICITY": 0.00033607, "INCLINATION": 74.0074, "RA_OF_ASC_NODE": 93.0882, "ARG_OF_PERICENTER": 176.5145, "MEAN_ANOMALY": 202.8392, "EPHEMERIS_TYPE": 0, "CLASSIFICATION_TYPE": "U", "NORAD_CAT_ID": 38208, "ELEMENT_SET_NO": 999, "REV_AT_EPOCH": 71053, "BSTAR": 0.0048604025, "MEAN_MOTION_DOT": 0.00040129, "MEAN_MOTION_DDOT": 0}, "tle": {"line1": "1 38208U 93036BSY 25339.59667791  .00040129  00000+0  48604-2 0  9993", "line2": "2 38208  74.0074  93.0882 0003360 176.5145 202.8392 14.83431595710531"}}, "geometry": {"type": "Point", "coordinates": [66.44286813976571, -52.553096507780644]}}, {"type": "Feature", "properties": {"norad_id": 38212, "name": "COSMOS 2251 DEB", "group": "cosmos-2251-debris", "lat": -0.917080452445702, "lon": 85.7450100917799, "alt_km": 698.6822191436258, "timestamp": "2025-12-07T22:37:43.480264+00:00", "meta": {"OBJECT_NAME": "COSMOS 2251 DEB", "OBJECT_ID": "1993-036BTC", "EPOCH": "2025-12-06T01:08:07.179648", "MEAN_MOTION": 14.77609571, "ECCENTRICITY": 0.00929618, "INCLINATION": 74.0526, "RA_OF_ASC_NODE": 89.7222, "ARG_OF_PERICENTER": 158.629, "MEAN_ANOMALY": 201.8809, "EPHEMERIS_TYPE": 0, "CLASSIFICATION_TYPE": "U", "NORAD_CAT_ID": 38212, "ELEMENT_SET_NO": 999, "REV_AT_EPOCH": 81211, "BSTAR": 0.00094935233, "MEAN_MOTION_DOT": 7.267e-05, "MEAN_MOTION_DDOT": 0}, "tle": {"line1": "1 38212U 93036BTC 25340.04730532  .00007267  00000+0  94935-3 0  9999", "line2": "2 38212  74.0526  89.7222 0092961 158.6290 201.8809 14.77609571812118"}}, "geometry": {"type": "Point", "coordinates": [85.7450100917799, -0.917080452445702]}}, {"type": "Feature", "properties": {"norad_id": 38220, "name": "COSMOS 2251 DEB", "group": "cosmos-2251-debris", "lat": -63.92785055082112, "lon": -66.1894100436926, "alt_km": 599.846463859225, "timestamp": "2025-12-07T22:37:43.480274+00:00", "meta": {"OBJECT_NAME": "COSMOS 2251 DEB", "OBJECT_ID": "1993-036BTL", "EPOCH": "2025-12-06T00:28:04.464768", "MEAN_MOTION": 14.92263375, "ECCENTRICITY": 0.00038963, "INCLINATION": 74.0153, "RA_OF_ASC_NODE": 81.8134, "ARG_OF_PERICENTER": 78.0872, "MEAN_ANOMALY": 282.0747, "EPHEMERIS_TYPE": 0, "CLASSIFICATION_TYPE": "U", "NORAD_CAT_ID": 38220, "ELEMENT_SET_NO": 999, "REV_AT_EPOCH": 71270, "BSTAR": 0.0049211275, "MEAN_MOTION_DOT": 0.00050569, "MEAN_MOTION_DDOT": 0}, "tle": {"line1": "1 38220U 93036BTL 25340.01949612  .00050569  00000+0  49211-2 0  9995", "line2": "2 38220  74.0153  81.8134 0003896  78.0872 282.0747 14.92263375712709"}}, "geometry": {"type": "Point", "coordinates": [-66.1894100436926, -63.92785055082112]}}, {"type": "Feature", "properties": {"norad_id": 38479, "name": "COSMOS 2251 DEB", "group": "cosmos-2251-debris", "lat": -53.31315661126776, "lon": 35.778691293481344, "alt_km": 746.9021360455481, "timestamp": "2025-12-07T22:37:43.480284+00:00", "meta": {"OBJECT_NAME": "COSMOS 2251 DEB", "OBJECT_ID": "1993-036BTP", "EPOCH": "2025-12-07T07:04:09.278112", "MEAN_MOTION": 14.38204903, "ECCENTRICITY": 0.0084148, "INCLINATION": 74.006, "RA_OF_ASC_NODE": 194.3325, "ARG_OF_PERICENTER": 304.588, "MEAN_ANOMALY": 177.4391, "EPHEMERIS_TYPE": 0, "CLASSIFICATION_TYPE": "U", "NORAD_CAT_ID": 38479, "ELEMENT_SET_NO": 999, "REV_AT_EPOCH": 64609, "BSTAR": 0.0025678956, "MEAN_MOTION_DOT": 8.108e-05, "MEAN_MOTION_DDOT": 0}, "tle": {"line1": "1 38479U 93036BTP 25341.29455183  .00008108  00000+0  25679-2 0  9991", "line2": "2 38479  74.0060 194.3325 0084148 304.5880 177.4391 14.38204903646091"}}, "geometry": {"type": "Point", "coordinates": [35.778691293481344, -53.31315661126776]}}, {"type": "Feature", "properties": {"norad_id": 38481, "name": "COSMOS 2251 DEB", "group": "cosmos-2251-debris", "lat": 10.19095431403661, "lon": -167.1162329447032, "alt_km": 1055.9674581656454, "timestamp": "2025-12-07T22:37:43.480294+00:00", "meta": {"OBJECT_NAME": "COSMOS 2251 DEB", "OBJECT_ID": "1993-036BTR", "EPOCH": "2025-11-30T21:06:34.190496", "MEAN_MOTION": 13.94733975, "ECCENTRICITY": 0.02337783, "INCLINATION": 73.9329, "RA_OF_ASC_NODE": 28.0528, "ARG_OF_PERICENTER": 330.587, "MEAN_ANOMALY": 28.2266, "EPHEMERIS_TYPE": 0, "CLASSIFICATION_TYPE": "U", "NORAD_CAT_ID": 38481, "ELEMENT_SET_NO": 999, "REV_AT_EPOCH": 58895, "BSTAR": 0.0013592661, "MEAN_MOTION_DOT": 2.261e-05, "MEAN_MOTION_DDOT": 0}, "tle": {"line1": "1 38481U 93036BTR 25334.87956239  .00002261  00000+0  13593-2 0  9994", "line2": "2 38481  73.9329  28.0528 0233778 330.5870  28.2266 13.94733975588952"}}, "geometry": {"type": "Point", "coordinates": [-167.1162329447032, 10.19095431403661]}}, {"type": "Feature", "properties": {"norad_id": 38483, "name": "COSMOS 2251 DEB", "group": "cosmos-2251-debris", "lat": 44.141486001341875, "lon": 36.21624625179077, "alt_km": 778.1411357121115, "timestamp": "2025-12-07T22:37:43.480305+00:00", "meta": {"OBJECT_NAME": "COSMOS 2251 DEB", "OBJECT_ID": "1993-036BTT", "EPOCH": "2025-12-05T09:54:51.547104", "MEAN_MOTION": 14.28743518, "ECCENTRICITY": 0.01115299, "INCLINATION": 74.2614, "RA_OF_ASC_NODE": 24.8593, "ARG_OF_PERICENTER": 132.5252, "MEAN_ANOMALY": 228.5384, "EPHEMERIS_TYPE": 0, "CLASSIFICATION_TYPE": "U", "NORAD_CAT_ID": 38483, "ELEMENT_SET_NO": 999, "REV_AT_EPOCH": 63373, "BSTAR": 0.0016991918, "MEAN_MOTION_DOT": 4.552e-05, "MEAN_MOTION_DDOT": 0}, "tle": {"line1": "1 38483U 93036BTT 25339.41309661  .00004552  00000+0  16992-2 0  9993", "line2": "2 38483  74.2614  24.8593 0111529 132.5252 228.5384 14.28743518633739"}}, "geometry": {"type": "Point", "coordinates": [36.21624625179077, 44.141486001341875]}}, {"type": "Feature", "properties": {"norad_id": 38486, "name": "COSMOS 2251 DEB", "group": "cosmos-2251-debris", "lat": -16.665437636155865, "lon": -150.69004684718826, "alt_km": 635.6016090544308, "timestamp": "2025-12-07T22:37:43.480315+00:00", "meta": {"OBJECT_NAME": "COSMOS 2251 DEB", "OBJECT_ID": "1993-036BTW", "EPOCH": "2025-12-06T22:20:18.224736", "MEAN_MOTION": 14.72994034, "ECCENTRICITY": 0.00300466, "INCLINATION": 73.9399, "RA_OF_ASC_NODE": 216.2395, "ARG_OF_PERICENTER": 1.0805, "MEAN_ANOMALY": 16.9545, "EPHEMERIS_TYPE": 0, "CLASSIFICATION_TYPE": "U", "NORAD_CAT_ID": 38486, "ELEMENT_SET_NO": 999, "REV_AT_EPOCH": 75349, "BSTAR": 0.0040836138, "MEAN_MOTION_DOT": 0.00026487, "MEAN_MOTION_DDOT": 0}, "tle": {"line1": "1 38486U 93036BTW 25340.93076649  .00026487  00000+0  40836-2 0  9997", "line2": "2 38486  73.9399 216.2395 0030046   1.0805  16.9545 14.72994034753497"}}, "geometry": {"type": "Point", "coordinates": [-150.69004684718826, -16.665437636155865]}}]}